[{"OBJECT_NAME":"STARLINK-3569","OBJECT_ID":"2022-017AV","EPOCH":"2026-03-09T21:26:07.479168","MEAN_MOTION":15.08866008,"ECCENTRICITY":0.00013177,"INCLINATION":53.2194,"RA_OF_ASC_NODE":338.2123,"ARG_OF_PERICENTER":56.0167,"MEAN_ANOMALY":304.095,"EPHEMERIS_TYPE":0,"CLASSIFICATION_TYPE":"U","NORAD_CAT_ID":51811,"ELEMENT_SET_NO":999,"REV_AT_EPOCH":22399,"BSTAR":5.0992e-5,"MEAN_MOTION_DOT":5.24e-6,"MEAN_MOTION_DDOT":0},{"OBJECT_NAME":"FENGYUN 1C DEB","OBJECT_ID":"1999-025EEQ","EPOCH":"2026-03-04T07:32:44.635200","MEAN_MOTION":14.50858155,"ECCENTRICITY":0.02656951,"INCLINATION":98.9728,"RA_OF_ASC_NODE":96.1117,"ARG_OF_PERICENTER":260.4903,"MEAN_ANOMALY":96.6174,"EPHEMERIS_TYPE":0,"CLASSIFICATION_TYPE":"U","NORAD_CAT_ID":37056,"ELEMENT_SET_NO":999,"REV_AT_EPOCH":66594,"BSTAR":0.00041717467,"MEAN_MOTION_DOT":2.532e-5,"MEAN_MOTION_DDOT":0}]
